{"fetched_at":"2026-07-15T17:47:33.687Z","source":"https://celestrak.org/NORAD/elements/gp.php?NAME=SPOT&FORMAT=JSON","constellation":"spot","records":[{"OBJECT_NAME":"SPOT 6","OBJECT_ID":"2012-047A","EPOCH":"2026-07-15T04:30:05.451840","CLASSIFICATION_TYPE":"U","MEAN_MOTION":14.58538812,"ECCENTRICITY":0.0001085,"INCLINATION":98.2114,"RA_OF_ASC_NODE":263.1667,"ARG_OF_PERICENTER":85.9709,"MEAN_ANOMALY":274.1614,"EPHEMERIS_TYPE":0,"NORAD_CAT_ID":38755,"ELEMENT_SET_NO":999,"REV_AT_EPOCH":73713,"BSTAR":0.000029471,"MEAN_MOTION_DOT":9.1e-7,"MEAN_MOTION_DDOT":0},{"OBJECT_NAME":"SPOT 7","OBJECT_ID":"2014-034A","EPOCH":"2026-07-15T04:38:26.581344","CLASSIFICATION_TYPE":"U","MEAN_MOTION":14.60980437,"ECCENTRICITY":0.0001589,"INCLINATION":98.0621,"RA_OF_ASC_NODE":257.9615,"ARG_OF_PERICENTER":94.858,"MEAN_ANOMALY":265.2803,"EPHEMERIS_TYPE":0,"NORAD_CAT_ID":40053,"ELEMENT_SET_NO":999,"REV_AT_EPOCH":64122,"BSTAR":0.000015492,"MEAN_MOTION_DOT":3.1e-7,"MEAN_MOTION_DDOT":0}]}
