SPOT 6                  
1 38755U 12047A   26196.18756310  .00000091  00000+0  29471-4 0  9993
2 38755  98.2114 263.1667 0001085  85.9709 274.1614 14.58538812737139
SPOT 7                  
1 40053U 14034A   26196.19336321  .00000031  00000+0  15492-4 0  9994
2 40053  98.0621 257.9615 0001589  94.8580 265.2803 14.60980437641225
